[Satellite]
VERSION=1.1
NAME=STARLINK-5063
NICKNAME=STARLINK-5063
TLE1=1 53907U 22119X   22297.16668981 -.00198976  00000+0 -14444-2 0  9996
TLE2=2 53907  53.2148 108.4818 0001999  24.9175  49.7559 15.73239863  5039
STATUS=0
